[{"OBJECT_NAME":"SUPERVIEW-1 03","OBJECT_ID":"2018-002A","EPOCH":"2026-03-09T22:14:33.880992","MEAN_MOTION":15.35916978,"ECCENTRICITY":0.00509393,"INCLINATION":97.3162,"RA_OF_ASC_NODE":154.1458,"ARG_OF_PERICENTER":177.0269,"MEAN_ANOMALY":183.1288,"EPHEMERIS_TYPE":0,"CLASSIFICATION_TYPE":"U","NORAD_CAT_ID":43099,"ELEMENT_SET_NO":999,"REV_AT_EPOCH":45311,"BSTAR":0.00062641306,"MEAN_MOTION_DOT":0.00022818,"MEAN_MOTION_DDOT":0},{"OBJECT_NAME":"STARLINK-36099","OBJECT_ID":"2025-278G","EPOCH":"2026-03-09T10:59:45.290976","MEAN_MOTION":15.27600863,"ECCENTRICITY":0.00018976,"INCLINATION":43.0055,"RA_OF_ASC_NODE":115.6815,"ARG_OF_PERICENTER":280.8029,"MEAN_ANOMALY":79.2609,"EPHEMERIS_TYPE":0,"CLASSIFICATION_TYPE":"U","NORAD_CAT_ID":66797,"ELEMENT_SET_NO":999,"REV_AT_EPOCH":1517,"BSTAR":0.0014044329,"MEAN_MOTION_DOT":0.00038612,"MEAN_MOTION_DDOT":0}]
